UNKNOWN                 
1 87730U          25333.99630734  .00000099  00000+0  88287-4 0  9996
2 87730  82.9456 243.5273 0031015  41.1427 319.2059 13.74502253583586
UNKNOWN                 
1 87737U          25332.12097169  .00000050  00000+0  96969-4 0  9999
2 87737  99.3757 204.2356 0132472 227.6738 131.3126 13.72337717601858
UNKNOWN                 
1 87764U          25333.91243881  .00009981  00000+0  17008-2 0  9998
2 87764  65.6717 197.7646 0360807  83.5948 299.9344 14.34513730617282
UNKNOWN                 
1 87771U          25327.50682115  .00000107  00000+0  37032-3 0  9992
2 87771 100.7440 163.2537 0119849  45.8847 315.2052 13.19509469532558
UNKNOWN                 
1 87782U          25333.37942749  .00002702  00000+0  90415-2 0  9994
2 87782 102.3351 203.2184 0058839 271.7271  87.7086 13.00322888566254
UNKNOWN                 
1 87843U          25333.08501501  .00002189  00000+0  50762-2 0  9997
2 87843  99.6612  88.3845 0232934  37.8196 323.9035 13.16477533562365
UNKNOWN                 
1 87845U          25322.15765395  .00002048  00000+0  38823-2 0  9996
2 87845  98.8519 284.4773 0576836 310.4581  44.7565 12.88841326562047
UNKNOWN                 
1 87878U          25329.13464671  .00004508  00000+0  14211-2 0  9998
2 87878  99.1571  87.3941 0034791 317.6102  42.2398 14.40517621608764
UNKNOWN                 
1 87884U          25332.55630739  .00000112  00000+0  83541-4 0  9996
2 87884  98.7350  76.8986 0154813 108.1622 253.6472 14.05974227616378
UNKNOWN                 
1 87991U          25324.39945669  .00002317  00000+0  46245-2 0  9996
2 87991  28.6256 353.8856 0884458 246.3283 104.2021 12.34874750520231
UNKNOWN                 
1 89003U          25319.55414108  .00000717  00000+0  25466-3 0  9998
2 89003  74.0493  64.4739 0014016 133.4339 226.7983 14.36170170627642
UNKNOWN                 
1 89005U          25333.79974039  .00002060  00000+0  47437-3 0  9991
2 89005  97.8393 163.9155 0193034  71.5479 290.6590 14.45476160532229
