CCSDS_OMM_VERS = 2.0
CREATION_DATE  = 
ORIGINATOR     = 

OBJECT_NAME    = UNKNOWN
OBJECT_ID      = 
CENTER_NAME    = EARTH
REF_FRAME      = TEME
TIME_SYSTEM    = UTC
MEAN_ELEMENT_THEORY = SGP/SGP4

EPOCH          = 2025-11-29T23:54:40.954176
MEAN_MOTION    = 13.74502253
ECCENTRICITY   = .0031015
INCLINATION    = 82.9456
RA_OF_ASC_NODE = 243.5273
ARG_OF_PERICENTER = 41.1427
MEAN_ANOMALY   = 319.2059

EPHEMERIS_TYPE = 0
CLASSIFICATION_TYPE = U
NORAD_CAT_ID   = 87730
ELEMENT_SET_NO = 999
REV_AT_EPOCH   = 58358
BSTAR          = .88287E-4
MEAN_MOTION_DOT = .99E-6
MEAN_MOTION_DDOT = 0

CCSDS_OMM_VERS = 2.0
CREATION_DATE  = 
ORIGINATOR     = 

OBJECT_NAME    = UNKNOWN
OBJECT_ID      = 
CENTER_NAME    = EARTH
REF_FRAME      = TEME
TIME_SYSTEM    = UTC
MEAN_ELEMENT_THEORY = SGP/SGP4

EPOCH          = 2025-11-28T02:54:11.954016
MEAN_MOTION    = 13.72337717
ECCENTRICITY   = .0132472
INCLINATION    = 99.3757
RA_OF_ASC_NODE = 204.2356
ARG_OF_PERICENTER = 227.6738
MEAN_ANOMALY   = 131.3126

EPHEMERIS_TYPE = 0
CLASSIFICATION_TYPE = U
NORAD_CAT_ID   = 87737
ELEMENT_SET_NO = 999
REV_AT_EPOCH   = 60185
BSTAR          = .96969E-4
MEAN_MOTION_DOT = .5E-6
MEAN_MOTION_DDOT = 0

CCSDS_OMM_VERS = 2.0
CREATION_DATE  = 
ORIGINATOR     = 

OBJECT_NAME    = UNKNOWN
OBJECT_ID      = 
CENTER_NAME    = EARTH
REF_FRAME      = TEME
TIME_SYSTEM    = UTC
MEAN_ELEMENT_THEORY = SGP/SGP4

EPOCH          = 2025-11-29T21:53:54.713184
MEAN_MOTION    = 14.34513730
ECCENTRICITY   = .0360807
INCLINATION    = 65.6717
RA_OF_ASC_NODE = 197.7646
ARG_OF_PERICENTER = 83.5948
MEAN_ANOMALY   = 299.9344

EPHEMERIS_TYPE = 0
CLASSIFICATION_TYPE = U
NORAD_CAT_ID   = 87764
ELEMENT_SET_NO = 999
REV_AT_EPOCH   = 61728
BSTAR          = .17008E-2
MEAN_MOTION_DOT = .9981E-4
MEAN_MOTION_DDOT = 0

CCSDS_OMM_VERS = 2.0
CREATION_DATE  = 
ORIGINATOR     = 

OBJECT_NAME    = UNKNOWN
OBJECT_ID      = 
CENTER_NAME    = EARTH
REF_FRAME      = TEME
TIME_SYSTEM    = UTC
MEAN_ELEMENT_THEORY = SGP/SGP4

EPOCH          = 2025-11-23T12:09:49.347360
MEAN_MOTION    = 13.19509469
ECCENTRICITY   = .0119849
INCLINATION    = 100.7440
RA_OF_ASC_NODE = 163.2537
ARG_OF_PERICENTER = 45.8847
MEAN_ANOMALY   = 315.2052

EPHEMERIS_TYPE = 0
CLASSIFICATION_TYPE = U
NORAD_CAT_ID   = 87771
ELEMENT_SET_NO = 999
REV_AT_EPOCH   = 53255
BSTAR          = .37032E-3
MEAN_MOTION_DOT = .107E-5
MEAN_MOTION_DDOT = 0

CCSDS_OMM_VERS = 2.0
CREATION_DATE  = 
ORIGINATOR     = 

OBJECT_NAME    = UNKNOWN
OBJECT_ID      = 
CENTER_NAME    = EARTH
REF_FRAME      = TEME
TIME_SYSTEM    = UTC
MEAN_ELEMENT_THEORY = SGP/SGP4

EPOCH          = 2025-11-29T09:06:22.535136
MEAN_MOTION    = 13.00322888
ECCENTRICITY   = .0058839
INCLINATION    = 102.3351
RA_OF_ASC_NODE = 203.2184
ARG_OF_PERICENTER = 271.7271
MEAN_ANOMALY   = 87.7086

EPHEMERIS_TYPE = 0
CLASSIFICATION_TYPE = U
NORAD_CAT_ID   = 87782
ELEMENT_SET_NO = 999
REV_AT_EPOCH   = 56625
BSTAR          = .90415E-2
MEAN_MOTION_DOT = .2702E-4
MEAN_MOTION_DDOT = 0

CCSDS_OMM_VERS = 2.0
CREATION_DATE  = 
ORIGINATOR     = 

OBJECT_NAME    = UNKNOWN
OBJECT_ID      = 
CENTER_NAME    = EARTH
REF_FRAME      = TEME
TIME_SYSTEM    = UTC
MEAN_ELEMENT_THEORY = SGP/SGP4

EPOCH          = 2025-11-29T02:02:25.296864
MEAN_MOTION    = 13.16477533
ECCENTRICITY   = .0232934
INCLINATION    = 99.6612
RA_OF_ASC_NODE = 88.3845
ARG_OF_PERICENTER = 37.8196
MEAN_ANOMALY   = 323.9035

EPHEMERIS_TYPE = 0
CLASSIFICATION_TYPE = U
NORAD_CAT_ID   = 87843
ELEMENT_SET_NO = 999
REV_AT_EPOCH   = 56236
BSTAR          = .50762E-2
MEAN_MOTION_DOT = .2189E-4
MEAN_MOTION_DDOT = 0

CCSDS_OMM_VERS = 2.0
CREATION_DATE  = 
ORIGINATOR     = 

OBJECT_NAME    = UNKNOWN
OBJECT_ID      = 
CENTER_NAME    = EARTH
REF_FRAME      = TEME
TIME_SYSTEM    = UTC
MEAN_ELEMENT_THEORY = SGP/SGP4

EPOCH          = 2025-11-18T03:47:01.301280
MEAN_MOTION    = 12.88841326
ECCENTRICITY   = .0576836
INCLINATION    = 98.8519
RA_OF_ASC_NODE = 284.4773
ARG_OF_PERICENTER = 310.4581
MEAN_ANOMALY   = 44.7565

EPHEMERIS_TYPE = 0
CLASSIFICATION_TYPE = U
NORAD_CAT_ID   = 87845
ELEMENT_SET_NO = 999
REV_AT_EPOCH   = 56204
BSTAR          = .38823E-2
MEAN_MOTION_DOT = .2048E-4
MEAN_MOTION_DDOT = 0

CCSDS_OMM_VERS = 2.0
CREATION_DATE  = 
ORIGINATOR     = 

OBJECT_NAME    = UNKNOWN
OBJECT_ID      = 
CENTER_NAME    = EARTH
REF_FRAME      = TEME
TIME_SYSTEM    = UTC
MEAN_ELEMENT_THEORY = SGP/SGP4

EPOCH          = 2025-11-25T03:13:53.475744
MEAN_MOTION    = 14.40517621
ECCENTRICITY   = .0034791
INCLINATION    = 99.1571
RA_OF_ASC_NODE = 87.3941
ARG_OF_PERICENTER = 317.6102
MEAN_ANOMALY   = 42.2398

EPHEMERIS_TYPE = 0
CLASSIFICATION_TYPE = U
NORAD_CAT_ID   = 87878
ELEMENT_SET_NO = 999
REV_AT_EPOCH   = 60876
BSTAR          = .14211E-2
MEAN_MOTION_DOT = .4508E-4
MEAN_MOTION_DDOT = 0

CCSDS_OMM_VERS = 2.0
CREATION_DATE  = 
ORIGINATOR     = 

OBJECT_NAME    = UNKNOWN
OBJECT_ID      = 
CENTER_NAME    = EARTH
REF_FRAME      = TEME
TIME_SYSTEM    = UTC
MEAN_ELEMENT_THEORY = SGP/SGP4

EPOCH          = 2025-11-28T13:21:04.958496
MEAN_MOTION    = 14.05974227
ECCENTRICITY   = .0154813
INCLINATION    = 98.7350
RA_OF_ASC_NODE = 76.8986
ARG_OF_PERICENTER = 108.1622
MEAN_ANOMALY   = 253.6472

EPHEMERIS_TYPE = 0
CLASSIFICATION_TYPE = U
NORAD_CAT_ID   = 87884
ELEMENT_SET_NO = 999
REV_AT_EPOCH   = 61637
BSTAR          = .83541E-4
MEAN_MOTION_DOT = .112E-5
MEAN_MOTION_DDOT = 0

CCSDS_OMM_VERS = 2.0
CREATION_DATE  = 
ORIGINATOR     = 

OBJECT_NAME    = UNKNOWN
OBJECT_ID      = 
CENTER_NAME    = EARTH
REF_FRAME      = TEME
TIME_SYSTEM    = UTC
MEAN_ELEMENT_THEORY = SGP/SGP4

EPOCH          = 2025-11-20T09:35:13.058016
MEAN_MOTION    = 12.34874750
ECCENTRICITY   = .0884458
INCLINATION    = 28.6256
RA_OF_ASC_NODE = 353.8856
ARG_OF_PERICENTER = 246.3283
MEAN_ANOMALY   = 104.2021

EPHEMERIS_TYPE = 0
CLASSIFICATION_TYPE = U
NORAD_CAT_ID   = 87991
ELEMENT_SET_NO = 999
REV_AT_EPOCH   = 52023
BSTAR          = .46245E-2
MEAN_MOTION_DOT = .2317E-4
MEAN_MOTION_DDOT = 0

CCSDS_OMM_VERS = 2.0
CREATION_DATE  = 
ORIGINATOR     = 

OBJECT_NAME    = UNKNOWN
OBJECT_ID      = 
CENTER_NAME    = EARTH
REF_FRAME      = TEME
TIME_SYSTEM    = UTC
MEAN_ELEMENT_THEORY = SGP/SGP4

EPOCH          = 2025-11-15T13:17:57.789312
MEAN_MOTION    = 14.36170170
ECCENTRICITY   = .0014016
INCLINATION    = 74.0493
RA_OF_ASC_NODE = 64.4739
ARG_OF_PERICENTER = 133.4339
MEAN_ANOMALY   = 226.7983

EPHEMERIS_TYPE = 0
CLASSIFICATION_TYPE = U
NORAD_CAT_ID   = 89003
ELEMENT_SET_NO = 999
REV_AT_EPOCH   = 62764
BSTAR          = .25466E-3
MEAN_MOTION_DOT = .717E-5
MEAN_MOTION_DDOT = 0

CCSDS_OMM_VERS = 2.0
CREATION_DATE  = 
ORIGINATOR     = 

OBJECT_NAME    = UNKNOWN
OBJECT_ID      = 
CENTER_NAME    = EARTH
REF_FRAME      = TEME
TIME_SYSTEM    = UTC
MEAN_ELEMENT_THEORY = SGP/SGP4

EPOCH          = 2025-11-29T19:11:37.569696
MEAN_MOTION    = 14.45476160
ECCENTRICITY   = .0193034
INCLINATION    = 97.8393
RA_OF_ASC_NODE = 163.9155
ARG_OF_PERICENTER = 71.5479
MEAN_ANOMALY   = 290.6590

EPHEMERIS_TYPE = 0
CLASSIFICATION_TYPE = U
NORAD_CAT_ID   = 89005
ELEMENT_SET_NO = 999
REV_AT_EPOCH   = 53222
BSTAR          = .47437E-3
MEAN_MOTION_DOT = .206E-4
MEAN_MOTION_DDOT = 0

